[{"OBJECT_NAME":"KUIPER-00112","OBJECT_ID":"2025-171U","EPOCH":"2026-03-09T10:38:34.560384","MEAN_MOTION":14.80061441,"ECCENTRICITY":2.5e-5,"INCLINATION":51.9008,"RA_OF_ASC_NODE":156.6907,"ARG_OF_PERICENTER":68.2896,"MEAN_ANOMALY":291.8093,"EPHEMERIS_TYPE":0,"CLASSIFICATION_TYPE":"U","NORAD_CAT_ID":65150,"ELEMENT_SET_NO":999,"REV_AT_EPOCH":3288,"BSTAR":0.00077040168,"MEAN_MOTION_DOT":5.675e-5,"MEAN_MOTION_DDOT":0},{"OBJECT_NAME":"FENGYUN 1C DEB","OBJECT_ID":"1999-025CGE","EPOCH":"2026-03-08T18:12:58.784544","MEAN_MOTION":14.419534,"ECCENTRICITY":0.02117171,"INCLINATION":99.3025,"RA_OF_ASC_NODE":0.4054,"ARG_OF_PERICENTER":290.956,"MEAN_ANOMALY":66.9087,"EPHEMERIS_TYPE":0,"CLASSIFICATION_TYPE":"U","NORAD_CAT_ID":31779,"ELEMENT_SET_NO":999,"REV_AT_EPOCH":98249,"BSTAR":0.00060763552,"MEAN_MOTION_DOT":2.542e-5,"MEAN_MOTION_DDOT":0}]
